start=new Date('2023-02-28T00:00:00.000Z').valueOf();
sats=[{"NORAD_CAT_ID":"49459","MEAN_ELEMENT_THEORY":"SGP4","REF_FRAME":"TEME","CENTER_NAME":"EARTH","BSTAR":"0.00066321000000","MEAN_MOTION_DOT":"0.00010291","OBJECT_ID":"2021-104BD","MEAN_MOTION_DDOT":"0.0000000000000","OBJECT_NAME":"STARLINK-3141","GP_ID":"227193043","RCS_SIZE":"LARGE","PERIAPSIS":"538.682","LAUNCH_DATE":"2021-11-13","CLASSIFICATION_TYPE":"U","REV_AT_EPOCH":"7180","OBJECT_TYPE":"PAYLOAD","INCLINATION":"53.2162","ARG_OF_PERICENTER":"91.6347","COUNTRY_CODE":"US","EPHEMERIS_TYPE":"0","APOAPSIS":"540.641","TLE_LINE2":"2 49459  53.2162 144.3538 0001416  91.6347 268.4808 15.08867344 71800","MEAN_MOTION":"15.08867344","TIME_SYSTEM":"UTC","ELEMENT_SET_NO":"999","EPOCH":"2023-02-27T15:26:36.927744","ECCENTRICITY":"0.00014160","FILE":"3846812","DECAY_DATE":null,"MEAN_ANOMALY":"268.4808","SITE":"AFETR","TLE_LINE1":"1 49459U 21104BD  23058.64348296  .00010291  00000-0  66321-3 0  9993","SEMIMAJOR_AXIS":"6917.797","RA_OF_ASC_NODE":"144.3538","PERIOD":"95.436"},{"RCS_SIZE":"LARGE","GP_ID":"227193795","PERIAPSIS":"538.690","LAUNCH_DATE":"2021-11-13","CLASSIFICATION_TYPE":"U","INCLINATION":"53.2147","ARG_OF_PERICENTER":"99.2324","OBJECT_TYPE":"PAYLOAD","REV_AT_EPOCH":"7177","NORAD_CAT_ID":"49460","BSTAR":"0.00139760000000","REF_FRAME":"TEME","MEAN_ELEMENT_THEORY":"SGP4","CENTER_NAME":"EARTH","MEAN_MOTION_DDOT":"0.0000000000000","OBJECT_ID":"2021-104BE","MEAN_MOTION_DOT":"0.00022043","OBJECT_NAME":"STARLINK-3140","DECAY_DATE":null,"FILE":"3846812","SITE":"AFETR","MEAN_ANOMALY":"260.8826","RA_OF_ASC_NODE":"144.9654","SEMIMAJOR_AXIS":"6917.791","TLE_LINE1":"1 49460U 21104BE  23058.50732539  .00022043  00000-0  13976-2 0  9992","PERIOD":"95.436","APOAPSIS":"540.623","EPHEMERIS_TYPE":"0","COUNTRY_CODE":"US","MEAN_MOTION":"15.08869213","TLE_LINE2":"2 49460  53.2147 144.9654 0001397  99.2324 260.8826 15.08869213 71776","EPOCH":"2023-02-27T12:10:32.913696","ELEMENT_SET_NO":"999","TIME_SYSTEM":"UTC","ECCENTRICITY":"0.00013970"},{"OBJECT_NAME":"STARLINK-3219","MEAN_MOTION_DOT":"0.00047411","MEAN_MOTION_DDOT":"0.0000000000000","OBJECT_ID":"2021-115A","MEAN_ELEMENT_THEORY":"SGP4","REF_FRAME":"TEME","CENTER_NAME":"EARTH","BSTAR":"0.00297320000000","NORAD_CAT_ID":"49724","OBJECT_TYPE":"PAYLOAD","REV_AT_EPOCH":"6857","ARG_OF_PERICENTER":"85.9993","INCLINATION":"53.2158","CLASSIFICATION_TYPE":"U","PERIAPSIS":"538.500","LAUNCH_DATE":"2021-12-02","RCS_SIZE":"LARGE","GP_ID":"227196308","ECCENTRICITY":"0.00015920","EPOCH":"2023-02-27T18:05:39.021504","ELEMENT_SET_NO":"999","TIME_SYSTEM":"UTC","TLE_LINE2":"2 49724  53.2158  73.8597 0001592  85.9993 274.1181 15.08887285 68573","MEAN_MOTION":"15.08887285","APOAPSIS":"540.702","EPHEMERIS_TYPE":"0","COUNTRY_CODE":"US","PERIOD":"95.435","TLE_LINE1":"1 49724U 21115A   23058.75392386  .00047411  00000-0  29732-2 0  9999","RA_OF_ASC_NODE":"73.8597","SEMIMAJOR_AXIS":"6917.736","MEAN_ANOMALY":"274.1181","SITE":"AFETR","FILE":"3846812","DECAY_DATE":null},{"PERIOD":"95.436","RA_OF_ASC_NODE":"74.0640","SEMIMAJOR_AXIS":"6917.816","TLE_LINE1":"1 49725U 21115B   23058.73090408  .00026205  00000-0  16575-2 0  9997","SITE":"AFETR","MEAN_ANOMALY":"267.8671","DECAY_DATE":null,"FILE":"3846812","ECCENTRICITY":"0.00017780","ELEMENT_SET_NO":"999","EPOCH":"2023-02-27T17:32:30.112512","TIME_SYSTEM":"UTC","MEAN_MOTION":"15.08861002","TLE_LINE2":"2 49725  53.2164  74.0640 0001778  92.2525 267.8671 15.08861002 68573","APOAPSIS":"540.911","EPHEMERIS_TYPE":"0","COUNTRY_CODE":"US","ARG_OF_PERICENTER":"92.2525","INCLINATION":"53.2164","OBJECT_TYPE":"PAYLOAD","REV_AT_EPOCH":"6857","CLASSIFICATION_TYPE":"U","LAUNCH_DATE":"2021-12-02","PERIAPSIS":"538.451","RCS_SIZE":"LARGE","GP_ID":"227195057","OBJECT_NAME":"STARLINK-3218","MEAN_MOTION_DDOT":"0.0000000000000","OBJECT_ID":"2021-115B","MEAN_MOTION_DOT":"0.00026205","BSTAR":"0.00165750000000","CENTER_NAME":"EARTH","REF_FRAME":"TEME","MEAN_ELEMENT_THEORY":"SGP4","NORAD_CAT_ID":"49725"},{"MEAN_MOTION_DOT":"0.00033981","OBJECT_ID":"2021-115C","MEAN_MOTION_DDOT":"0.0000000000000","OBJECT_NAME":"STARLINK-3237","NORAD_CAT_ID":"49726","CENTER_NAME":"EARTH","MEAN_ELEMENT_THEORY":"SGP4","REF_FRAME":"TEME","BSTAR":"0.00214060000000","CLASSIFICATION_TYPE":"U","REV_AT_EPOCH":"6840","OBJECT_TYPE":"PAYLOAD","ARG_OF_PERICENTER":"117.2780","INCLINATION":"53.2149","GP_ID":"227195307","RCS_SIZE":"LARGE","LAUNCH_DATE":"2021-12-02","PERIAPSIS":"538.388","TIME_SYSTEM":"UTC","ELEMENT_SET_NO":"999","EPOCH":"2023-02-27T13:11:29.379840","ECCENTRICITY":"0.00017910","COUNTRY_CODE":"US","EPHEMERIS_TYPE":"0","APOAPSIS":"540.866","TLE_LINE2":"2 49726  53.2149  84.7760 0001791 117.2780 242.8395 15.08878674 68405","MEAN_MOTION":"15.08878674","TLE_LINE1":"1 49726U 21115C   23058.54964560  .00033981  00000-0  21406-2 0  9994","SEMIMAJOR_AXIS":"6917.762","RA_OF_ASC_NODE":"84.7760","PERIOD":"95.435","FILE":"3846812","DECAY_DATE":null,"MEAN_ANOMALY":"242.8395","SITE":"AFETR"},{"NORAD_CAT_ID":"49727","BSTAR":"0.00227880000000","MEAN_ELEMENT_THEORY":"SGP4","REF_FRAME":"TEME","CENTER_NAME":"EARTH","OBJECT_ID":"2021-115D","MEAN_MOTION_DDOT":"0.0000000000000","MEAN_MOTION_DOT":"0.00036207","OBJECT_NAME":"STARLINK-3242","RCS_SIZE":"LARGE","GP_ID":"227196058","LAUNCH_DATE":"2021-12-02","PERIAPSIS":"538.718","CLASSIFICATION_TYPE":"U","INCLINATION":"53.2150","ARG_OF_PERICENTER":"100.7738","REV_AT_EPOCH":"6840","OBJECT_TYPE":"PAYLOAD","COUNTRY_CODE":"US","EPHEMERIS_TYPE":"0","APOAPSIS":"540.521","MEAN_MOTION":"15.08881244","TLE_LINE2":"2 49727  53.2150  84.7605 0001303 100.7738 259.3401 15.08881244 68403","TIME_SYSTEM":"UTC","ELEMENT_SET_NO":"999","EPOCH":"2023-02-27T13:16:47.438112","ECCENTRICITY":"0.00013030","DECAY_DATE":null,"FILE":"3846812","SITE":"AFETR","MEAN_ANOMALY":"259.3401","SEMIMAJOR_AXIS":"6917.754","RA_OF_ASC_NODE":"84.7605","TLE_LINE1":"1 49727U 21115D   23058.55332683  .00036207  00000-0  22788-2 0  9999","PERIOD":"95.435"},{"RCS_SIZE":"LARGE","GP_ID":"227195809","LAUNCH_DATE":"2021-12-02","PERIAPSIS":"538.613","CLASSIFICATION_TYPE":"U","INCLINATION":"53.2165","ARG_OF_PERICENTER":"82.4304","REV_AT_EPOCH":"6843","OBJECT_TYPE":"PAYLOAD","NORAD_CAT_ID":"49728","BSTAR":"0.00131790000000","REF_FRAME":"TEME","CENTER_NAME":"EARTH","MEAN_ELEMENT_THEORY":"SGP4","OBJECT_ID":"2021-115E","MEAN_MOTION_DDOT":"0.0000000000000","MEAN_MOTION_DOT":"0.00020760","OBJECT_NAME":"STARLINK-3240","DECAY_DATE":null,"FILE":"3846812","SITE":"AFETR","MEAN_ANOMALY":"277.6864","SEMIMAJOR_AXIS":"6917.817","RA_OF_ASC_NODE":"83.8472","TLE_LINE1":"1 49728U 21115E   23058.75572720  .00020760  00000-0  13179-2 0  9991","PERIOD":"95.436","EPHEMERIS_TYPE":"0","COUNTRY_CODE":"US","APOAPSIS":"540.751","MEAN_MOTION":"15.08860672","TLE_LINE2":"2 49728  53.2165  83.8472 0001545  82.4304 277.6864 15.08860672 68436","TIME_SYSTEM":"UTC","EPOCH":"2023-02-27T18:08:14.830080","ELEMENT_SET_NO":"999","ECCENTRICITY":"0.00015450"},{"MEAN_MOTION":"15.08843957","TLE_LINE2":"2 49729  53.2170  83.8363 0001202 101.3484 258.7644 15.08843957 68435","APOAPSIS":"540.565","EPHEMERIS_TYPE":"0","COUNTRY_CODE":"US","ECCENTRICITY":"0.00012020","ELEMENT_SET_NO":"999","EPOCH":"2023-02-27T18:13:32.658528","TIME_SYSTEM":"UTC","SITE":"AFETR","MEAN_ANOMALY":"258.7644","DECAY_DATE":null,"FILE":"3846812","PERIOD":"95.437","RA_OF_ASC_NODE":"83.8363","SEMIMAJOR_AXIS":"6917.868","TLE_LINE1":"1 49729U 21115F   23058.75940577  .00000993  00000-0  80469-4 0  9995","BSTAR":"0.00008046900000","REF_FRAME":"TEME","MEAN_ELEMENT_THEORY":"SGP4","CENTER_NAME":"EARTH","NORAD_CAT_ID":"49729","OBJECT_NAME":"STARLINK-3251","MEAN_MOTION_DDOT":"0.0000000000000","OBJECT_ID":"2021-115F","MEAN_MOTION_DOT":"0.00000993","LAUNCH_DATE":"2021-12-02","PERIAPSIS":"538.902","RCS_SIZE":"LARGE","GP_ID":"227194558","ARG_OF_PERICENTER":"101.3484","INCLINATION":"53.2170","OBJECT_TYPE":"PAYLOAD","REV_AT_EPOCH":"6843","CLASSIFICATION_TYPE":"U"},{"LAUNCH_DATE":"2021-12-02","PERIAPSIS":"538.691","RCS_SIZE":"LARGE","GP_ID":"227194808","REV_AT_EPOCH":"6843","OBJECT_TYPE":"PAYLOAD","INCLINATION":"53.2174","ARG_OF_PERICENTER":"98.7044","CLASSIFICATION_TYPE":"U","REF_FRAME":"TEME","MEAN_ELEMENT_THEORY":"SGP4","CENTER_NAME":"EARTH","BSTAR":"0.00186970000000","NORAD_CAT_ID":"49730","OBJECT_NAME":"STARLINK-3249","MEAN_MOTION_DOT":"0.00029618","OBJECT_ID":"2021-115G","MEAN_MOTION_DDOT":"0.0000000000000","MEAN_ANOMALY":"261.4105","SITE":"AFETR","FILE":"3846812","DECAY_DATE":null,"PERIOD":"95.436","TLE_LINE1":"1 49730U 21115G   23058.76772694  .00029618  00000-0  18697-2 0  9998","SEMIMAJOR_AXIS":"6917.788","RA_OF_ASC_NODE":"83.8095","TLE_LINE2":"2 49730  53.2174  83.8095 0001391  98.7044 261.4105 15.08870071 68433","MEAN_MOTION":"15.08870071","EPHEMERIS_TYPE":"0","COUNTRY_CODE":"US","APOAPSIS":"540.616","ECCENTRICITY":"0.00013910","TIME_SYSTEM":"UTC","EPOCH":"2023-02-27T18:25:31.607616","ELEMENT_SET_NO":"999"},{"BSTAR":"0.00315530000000","REF_FRAME":"TEME","MEAN_ELEMENT_THEORY":"SGP4","CENTER_NAME":"EARTH","NORAD_CAT_ID":"49731","OBJECT_NAME":"STARLINK-3228","MEAN_MOTION_DDOT":"0.0000000000000","OBJECT_ID":"2021-115H","MEAN_MOTION_DOT":"0.00050353","LAUNCH_DATE":"2021-12-02","PERIAPSIS":"538.284","GP_ID":"227195559","RCS_SIZE":"LARGE","ARG_OF_PERICENTER":"92.0710","INCLINATION":"53.2173","OBJECT_TYPE":"PAYLOAD","REV_AT_EPOCH":"6843","CLASSIFICATION_TYPE":"U","MEAN_MOTION":"15.08886818","TLE_LINE2":"2 49731  53.2173  83.8194 0001905  92.0710 268.0500 15.08886818 68439","APOAPSIS":"540.920","COUNTRY_CODE":"US","EPHEMERIS_TYPE":"0","ECCENTRICITY":"0.00019050","EPOCH":"2023-02-27T18:18:50.389344","ELEMENT_SET_NO":"999","TIME_SYSTEM":"UTC","SITE":"AFETR","MEAN_ANOMALY":"268.0500","DECAY_DATE":null,"FILE":"3846812","PERIOD":"95.435","RA_OF_ASC_NODE":"83.8194","SEMIMAJOR_AXIS":"6917.737","TLE_LINE1":"1 49731U 21115H   23058.76308321  .00050353  00000-0  31553-2 0  9997"}];
